LEMUR-2-ANDIS           
1 42838U 17042P   26068.55941107  .00023598  00000+0  79875-3 0  9998
2 42838  97.3659 249.7950 0009101   4.3248 355.8070 15.30557934473198
STARLINK-33554          
1 62103U 24220R   26068.42117684  .00026001  00000+0  95059-3 0  9996
2 62103  43.0014 206.7569 0001556 178.2711 181.8146 15.27596170 72916
